[{"OBJECT_NAME":"STARLINK-5732","OBJECT_ID":"2023-020D","EPOCH":"2026-03-09T04:58:15.357216","MEAN_MOTION":15.02530703,"ECCENTRICITY":9.817e-5,"INCLINATION":43.0025,"RA_OF_ASC_NODE":7.5285,"ARG_OF_PERICENTER":258.253,"MEAN_ANOMALY":101.8203,"EPHEMERIS_TYPE":0,"CLASSIFICATION_TYPE":"U","NORAD_CAT_ID":55572,"ELEMENT_SET_NO":999,"REV_AT_EPOCH":16884,"BSTAR":-7.1304503e-5,"MEAN_MOTION_DOT":-1.166e-5,"MEAN_MOTION_DDOT":0},{"OBJECT_NAME":"FENGYUN 1C DEB","OBJECT_ID":"1999-025CKU","EPOCH":"2026-03-07T04:09:20.285280","MEAN_MOTION":14.64130912,"ECCENTRICITY":0.01755094,"INCLINATION":99.0838,"RA_OF_ASC_NODE":38.0129,"ARG_OF_PERICENTER":68.0231,"MEAN_ANOMALY":310.4177,"EPHEMERIS_TYPE":0,"CLASSIFICATION_TYPE":"U","NORAD_CAT_ID":31893,"ELEMENT_SET_NO":999,"REV_AT_EPOCH":99640,"BSTAR":0.00044028638,"MEAN_MOTION_DOT":2.831e-5,"MEAN_MOTION_DDOT":0}]
